H1 CPF 01  gfz 2022 02 10 01  5411 terrasarx 
H2 0702601  6201 31698    2022 02 10 00 59 42 2022 02 15 00 00 42   120 1 1  0 0 0
H9
10 0 59622  12942.000000  0   -5553737.210  -4073433.504    155087.430
10 0 59622  13062.000000  0   -5591580.571  -3881093.276   1056142.745
10 0 59622  13182.000000  0   -5527704.300  -3621123.649   1938599.125
10 0 59622  13302.000000  0   -5362080.180  -3299839.291   2786912.338
10 0 59622  13422.000000  0   -5096596.472  -2924622.885   3586142.906
10 0 59622  13542.000000  0   -4735038.572  -2503758.702   4322225.866
10 0 59622  13662.000000  0   -4283030.529  -2046249.424   4982222.104
10 0 59622  13782.000000  0   -3747940.751  -1561622.795   5554544.681
10 0 59622  13902.000000  0   -3138755.834  -1059733.068   6029159.648
10 0 59622  14022.000000  0   -2465923.020   -550559.551   6397759.072
10 0 59622  14142.000000  0   -1741163.927    -44006.720   6653900.675
10 0 59622  14262.000000  0    -977265.782    450287.491   6793112.736
10 0 59622  14382.000000  0    -187854.733    923133.274   6812967.123
10 0 59622  14502.000000  0     612846.922   1365959.028   6713118.947
10 0 59622  14622.000000  0    1410276.194   1770966.736   6495312.355
10 0 59622  14742.000000  0    2189793.494   2131269.454   6163351.305
10 0 59622  14862.000000  0    2936950.703   2441008.680   5723037.652
10 0 59622  14982.000000  0    3637761.021   2695451.202   5182076.310
10 0 59622  15102.000000  0    4278964.339   2891063.077   4549945.833
10 0 59622  15222.000000  0    4848282.114   3025559.545   3837738.092
10 0 59622  15342.000000  0    5334661.525   3097930.063   3057968.609
10 0 59622  15462.000000  0    5728498.421   3108435.056   2224354.665
10 0 59622  15582.000000  0    6021832.993   3058577.429   1351572.694
10 0 59622  15702.000000  0    6208517.131   2951048.458    454994.345
10 0 59622  15822.000000  0    6284345.675   2789647.852   -449592.842
10 0 59622  15942.000000  0    6247147.959   2579179.746  -1346272.722
10 0 59622  16062.000000  0    6096838.060   2325329.130  -2219287.595
10 0 59622  16182.000000  0    5835425.225   2034523.174  -3053322.115
10 0 59622  16302.000000  0    5466981.201   1713777.530  -3833777.042
10 0 59622  16422.000000  0    4997567.268   1370533.234  -4547026.493
10 0 59622  16542.000000  0    4435121.803   1012488.492  -5180653.017
10 0 59622  16662.000000  0    3789314.786    647430.984  -5723656.174
10 0 59622  16782.000000  0    3071372.703    283073.084  -6166634.365
10 0 59622  16902.000000  0    2293876.207    -73106.247  -6501936.776
10 0 59622  17022.000000  0    1470536.991   -414010.208  -6723783.628
10 0 59622  17142.000000  0     615957.485   -733061.155  -6828356.768
10 0 59622  17262.000000  0    -254625.730  -1024323.566  -6813858.119
10 0 59622  17382.000000  0   -1125607.138  -1282610.788  -6680535.952
10 0 59622  17502.000000  0   -1981285.221  -1503575.085  -6430681.972
10 0 59622  17622.000000  0   -2806139.591  -1683779.654  -6068595.635
10 0 59622  17742.000000  0   -3585106.086  -1820751.228  -5600517.677
10 0 59622  17862.000000  0   -4303850.062  -1913013.926  -5034534.861
10 0 59622  17982.000000  0   -4949032.908  -1960102.405  -4380451.537
10 0 59622  18102.000000  0   -5508564.715  -1962553.956  -3649630.699
10 0 59622  18222.000000  0   -5971839.838  -1921879.882  -2854805.688
10 0 59622  18342.000000  0   -6329948.684  -1840515.772  -2009863.604
10 0 59622  18462.000000  0   -6575860.467  -1721751.494  -1129604.751
10 0 59622  18582.000000  0   -6704571.984  -1569642.517   -229481.425
10 0 59622  18702.000000  0   -6713218.064  -1388904.072    674678.665
10 0 59622  18822.000000  0   -6601139.587  -1184790.619   1566958.785
10 0 59622  18942.000000  0   -6369906.721   -962964.191   2431642.499
10 0 59622  19062.000000  0   -6023297.152   -729354.910   3253499.343
10 0 59622  19182.000000  0   -5567229.939   -490016.656   4018060.970
10 0 59622  19302.000000  0   -5009655.186   -250982.246   4711881.211
10 0 59622  19422.000000  0   -4360404.976    -18122.267   5322772.945
10 0 59622  19542.000000  0   -3631011.166    202990.321   5840020.403
10 0 59622  19662.000000  0   -2834491.341    407205.904   6254564.039
10 0 59622  19782.000000  0   -1985108.668    589911.252   6559153.407
10 0 59622  19902.000000  0   -1098111.232    747128.189   6748468.501
10 0 59622  20022.000000  0    -189455.294    875596.752   6819206.243
10 0 59622  20142.000000  0     724481.590    972840.495   6770133.714
10 0 59622  20262.000000  0    1627194.519   1037213.684   6602108.263
10 0 59622  20382.000000  0    2502348.225   1067929.504   6318063.531
10 0 59622  20502.000000  0    3334072.339   1065068.373   5922962.104
10 0 59622  20622.000000  0    4107251.671   1029566.560   5423713.843
10 0 59622  20742.000000  0    4807803.808    963185.387   4829060.461
10 0 59622  20862.000000  0    5422942.170    868461.126   4149430.200
10 0 59622  20982.000000  0    5941419.686    748637.175   3396759.150
10 0 59622  21102.000000  0    6353744.401    607579.674   2584281.961
10 0 59622  21222.000000  0    6652361.831    449677.362   1726298.271
10 0 59622  21342.000000  0    6831803.492    279729.189    837917.353
10 0 59622  21462.000000  0    6888792.675    102821.949    -65214.985
10 0 59622  21582.000000  0    6822307.741    -75799.281   -967200.626
10 0 59622  21702.000000  0    6633598.682   -250864.228  -1852178.243
10 0 59622  21822.000000  0    6326157.833   -417210.462  -2704610.254
10 0 59622  21942.000000  0    5905646.145   -569913.509  -3509560.930
10 0 59622  22062.000000  0    5379777.525   -704410.242  -4252960.807
10 0 59622  22182.000000  0    4758164.111   -816612.125  -4921851.329
10 0 59622  22302.000000  0    4052128.661   -903005.840  -5504605.122
10 0 59622  22422.000000  0    3274488.555   -960740.528  -5991120.300
10 0 59622  22542.000000  0    2439315.372   -987699.343  -6372985.364
10 0 59622  22662.000000  0    1561676.500   -982552.589  -6643613.004
10 0 59622  22782.000000  0     657363.879   -944793.761  -6798342.803
10 0 59622  22902.000000  0    -257386.717   -874757.552  -6834513.410
10 0 59622  23022.000000  0   -1166181.118   -773618.726  -6751502.646
10 0 59622  23142.000000  0   -2052753.693   -643372.878  -6550737.564
10 0 59622  23262.000000  0   -2901252.233   -486798.488  -6235671.536
10 0 59622  23382.000000  0   -3696514.611   -307401.690  -5811730.873
10 0 59622  23502.000000  0   -4424337.730   -109343.813  -5286232.555
10 0 59622  23622.000000  0   -5071733.056    102647.127  -4668268.486
10 0 59622  23742.000000  0   -5627163.481    323379.012  -3968560.393
10 0 59622  23862.000000  0   -6080759.160    547312.097  -3199284.261
10 0 59622  23982.000000  0   -6424505.019    768686.019  -2373865.614
10 0 59622  24102.000000  0   -6652395.178    981655.220  -1506748.605
10 0 59622  24222.000000  0   -6760551.421   1180429.050   -613143.455
10 0 59622  24342.000000  0   -6747300.115   1359413.205    291246.473
10 0 59622  24462.000000  0   -6613203.002   1513348.585   1190507.318
10 0 59622  24582.000000  0   -6361045.409   1637445.075   2068802.515
10 0 59622  24702.000000  0   -5995779.381   1727506.038   2910661.069
10 0 59622  24822.000000  0   -5524422.481   1780039.737   3701258.878
10 0 59622  24942.000000  0   -4955914.917   1792354.888   4426685.750
10 0 59622  25062.000000  0   -4300940.531   1762638.541   5074192.349
10 0 59622  25182.000000  0   -3571716.986   1690014.600   5632413.405
10 0 59622  25302.000000  0   -2781760.115   1574581.829   6091564.902
10 0 59622  25422.000000  0   -1945625.513   1417430.936   6443612.068
10 0 59622  25542.000000  0   -1078633.703   1220639.247   6682403.434
10 0 59622  25662.000000  0    -196586.574    987244.234   6803770.950
10 0 59622  25782.000000  0     684520.341    721196.469   6805597.540
10 0 59622  25902.000000  0    1548786.744    427292.543   6687851.551
10 0 59622  26022.000000  0    2380693.109    111089.227   6452587.374
10 0 59622  26142.000000  0    3165378.841   -221200.473   6103913.104
10 0 59622  26262.000000  0    3888909.800   -562827.784   5647923.573
10 0 59622  26382.000000  0    4538529.220   -906642.950   5092599.219
10 0 59622  26502.000000  0    5102888.321  -1245242.517   4447672.825
10 0 59622  26622.000000  0    5572252.608  -1571125.523   3724463.886
10 0 59622  26742.000000  0    5938679.098  -1876856.322   2935682.848
10 0 59622  26862.000000  0    6196160.055  -2155230.174   2095207.634
10 0 59622  26982.000000  0    6340728.956  -2399437.316   1217836.733
10 0 59622  27102.000000  0    6370526.944  -2603221.505    319023.093
10 0 59622  27222.000000  0    6285826.398  -2761029.240   -585406.240
10 0 59622  27342.000000  0    6089011.793  -2868145.169  -1479538.055
10 0 59622  27462.000000  0    5784516.283  -2920810.621  -2347662.121
10 0 59622  27582.000000  0    5378718.089  -2916321.650  -3174553.512
10 0 59622  27702.000000  0    4879799.895  -2853104.776  -3945743.332
10 0 59622  27822.000000  0    4297575.345  -2730769.762  -4647772.175
10 0 59622  27942.000000  0    3643286.159  -2550137.536  -5268422.433
10 0 59622  28062.000000  0    2929375.716  -2313242.631  -5796923.046
10 0 59622  28182.000000  0    2169247.700  -2023311.949  -6224125.639
10 0 59622  28302.000000  0    1377012.645  -1684720.398  -6542653.515
10 0 59622  28422.000000  0     567225.108  -1302922.656  -6747018.470
10 0 59622  28542.000000  0    -245380.674   -884364.866  -6833704.925
10 0 59622  28662.000000  0   -1046153.338   -436377.033  -6801223.187
10 0 59622  28782.000000  0   -1820782.340     32952.425  -6650132.332
10 0 59622  28902.000000  0   -2555547.937    514919.259  -6383030.709
10 0 59622  29022.000000  0   -3237558.503   1000360.063  -6004515.903
10 0 59622  29142.000000  0   -3854973.811   1479821.800  -5521114.925
10 0 59622  29262.000000  0   -4397212.352   1943741.445  -4941183.172
10 0 59622  29382.000000  0   -4855137.611   2382634.542  -4274771.630
99
